{
  "norad_id": 58067,
  "name": "STARLINK-30567",
  "history": [
    {
      "epoch": "2026-03-28T19:55:00.942528Z",
      "apogee_km": 484.26087667079537,
      "perigee_km": 481.91913989286786,
      "latitude_deg": -2.443244642218903e-06,
      "longitude_deg": 154.2435751078773,
      "height_km": 482.4966193048027,
      "semi_major_axis_km": 6861.227008281831,
      "eccentricity": 0.00017065,
      "inclination_deg": 43.0013,
      "raan_deg": 279.2422,
      "arg_perigee_deg": 288.4456,
      "mean_anomaly_deg": 71.621,
      "mean_motion_rev_day": 15.27566337
    }
  ]
}