{"fetched_at":"2026-03-29T16:36:15Z","count":15609,"tles":[{"name":"STARLINK-30567","line1":"1 58067U 23158S   26087.82987202 -.00002772  00000+0 -91261-4 0  9998","line2":"2 58067  43.0013 279.2422 0001706 288.4456  71.6210 15.27566337136493","category":"Starlink"}]}